GLOBALSTAR M068         
1 32266U 07048D   24349.83091574 -.00000085  00000+0  10458-3 0  9991
2 32266  51.9861 144.2298 0002078  96.6445  50.7389 12.62811490794266
GLOBALSTAR M079         
1 37188U 10054A   24348.43290380 -.00000084  00000+0  11052-3 0  9991
2 37188  52.0056 345.2536 0000071 156.9514   1.7317 12.62268176652995
GLOBALSTAR M074         
1 37189U 10054B   24349.93179907 -.00000089  00000+0  81318-4 0  9997
2 37189  52.0034 340.0397 0000408  43.1963 331.1064 12.62260206653793
GLOBALSTAR M076         
1 37190U 10054C   24348.56425906 -.00000086  00000+0  96430-4 0  9998
2 37190  52.0049 344.3593 0000273 354.1831 161.5007 12.62274632653335
GLOBALSTAR M077         
1 37191U 10054D   24350.10350714 -.00000081  00000+0  12661-3 0  9994
2 37191  52.0082 296.4778 0000592  52.4209 320.8833 12.62268175654632
GLOBALSTAR M075         
1 37192U 10054E   24349.84742756 -.00000080  00000+0  13502-3 0  9999
2 37192  51.9967  22.8107 0000333  97.5051  73.1566 12.62270094652562
GLOBALSTAR M073         
1 37193U 10054F   24350.12945907 -.00000098  00000+0  34423-4 0  9991
2 37193  52.0069 295.6302 0000506  36.2756 336.8218 12.62273833654647
GLOBALSTAR M083         
1 37739U 11033A   24349.84108963 -.00000066  00000+0  20953-3 0  9992
2 37739  51.9850 245.4926 0000782  79.0282   2.7772 12.62269348623577
GLOBALSTAR M088         
1 37740U 11033B   24349.91024164 -.00000100  00000+0  20363-4 0  9997
2 37740  51.9710 150.9257 0001073 105.6975  51.0764 12.62266575619123
GLOBALSTAR M091         
1 37741U 11033C   24349.84669355 -.00000114  00000+0 -54800-4 0  9996
2 37741  51.9989 114.3458 0001046 128.3220  38.4655 12.62271754619903
GLOBALSTAR M085         
1 37742U 11033D   24349.99259421 -.00000096  00000+0  41621-4 0  9997
2 37742  51.9882  65.1018 0000745 141.8507  29.4166 12.62270152620926
GLOBALSTAR M081         
1 37743U 11033E   24349.77121897 -.00000098  00000+0  30435-4 0  9992
2 37743  51.9970  68.4485 0000502 153.4931 331.4910 12.62274039620550
GLOBALSTAR M089         
1 37744U 11033F   24348.55161406 -.00000077  00000+0  14853-3 0  9990
2 37744  51.9950  26.4272 0000215  55.7809 103.4527 12.62273314621249
GLOBALSTAR M084         
1 38040U 11080A   24349.89615186 -.00000066  00000+0  21192-3 0  9991
2 38040  52.0003 249.5235 0001047  52.2420  40.0203 12.62272427599393
GLOBALSTAR M080         
1 38041U 11080B   24349.86832414 -.00000074  00000+0  16785-3 0  9995
2 38041  52.0055 251.1515 0000981  32.8993  51.9655 12.62259311599519
GLOBALSTAR M082         
1 38042U 11080C   24350.13383309 -.00000056  00000+0  26799-3 0  9998
2 38042  52.0050 205.7695 0001351 100.1292  52.2839 12.62271273600424
GLOBALSTAR M092         
1 38043U 11080D   24350.15592084 -.00000085  00000+0  10613-3 0  9993
2 38043  52.0095 296.0683 0000705  56.1222 316.7782 12.62270429598927
GLOBALSTAR M090         
1 38044U 11080E   24350.00074619 -.00000066  00000+0  21185-3 0  9992
2 38044  51.9861 200.2192 0001095  93.5931  54.0103 12.62265027600396
GLOBALSTAR M086         
1 38045U 11080F   24349.85168263 -.00000061  00000+0  23732-3 0  9998
2 38045  51.9870 201.2096 0000248  46.6286  23.7483 12.62264773600281
GLOBALSTAR M097         
1 39072U 13005A   24349.70462949 -.00000133  00000+0 -16139-3 0  9994
2 39072  52.0034 116.0165 0000827 124.8288 235.2657 12.62268197547513
GLOBALSTAR M093         
1 39073U 13005B   24349.67763009 -.00000113  00000+0 -53526-4 0  9992
2 39073  51.9802 109.6928 0000899 131.1677 228.9267 12.62277226547465
GLOBALSTAR M094         
1 39074U 13005C   24349.59880353 -.00000085  00000+0  10429-3 0  9997
2 39074  51.9978  24.1337 0000401 164.9752 195.1127 12.62266075549060
GLOBALSTAR M096         
1 39075U 13005D   24349.77037178 -.00000100  00000+0  18773-4 0  9996
2 39075  52.0085  71.9814 0000770 146.0469 214.0447 12.62265575548000
GLOBALSTAR M078         
1 39076U 13005E   24349.90179941 -.00000107  00000+0 -19266-4 0  9993
2 39076  51.9845 156.3384 0001830 116.0903 244.0152 12.62267632546641
GLOBALSTAR M095         
1 39077U 13005F   24349.77025627 -.00000107  00000+0 -16821-4 0  9994
2 39077  51.9773 154.0301 0001428 122.6337 237.4667 12.62269627546488
GLOBALSTAR M087         
1 52888U 22064A   24349.80005317 -.00000050  00000+0  20550-3 0  9991
2 52888  51.9788 300.4924 0009230 253.2103 106.7770 13.05069051121667
